{"type": "FeatureCollection", "features": [ {"type": "Feature", "properties": {"norad_id": 31182, "name": "FENGYUN 1C DEB", "group": "fengyun-1c-debris", "lat": 22.058985422853837, "lon": -17.273533238343347, "alt_km": 841.5336618418214, "timestamp": "2025-12-23T16:57:12.633541+00:00", "meta": {"OBJECT_NAME": "FENGYUN 1C DEB", "OBJECT_ID": "1999-025BJL", "EPOCH": "2025-12-22T19:20:53.254752", "MEAN_MOTION": 14.1456637, "ECCENTRICITY": 0.00235309, "INCLINATION": 98.6826, "RA_OF_ASC_NODE": 345.4013, "ARG_OF_PERICENTER": 108.6535, "MEAN_ANOMALY": 12.2806, "EPHEMERIS_TYPE": 0, "CLASSIFICATION_TYPE": "U", "NORAD_CAT_ID": 31182, "ELEMENT_SET_NO": 999, "REV_AT_EPOCH": 96223, "BSTAR": 0.00031151956, "MEAN_MOTION_DOT": 5.57e-06, "MEAN_MOTION_DDOT": 0}, "tle": {"line1": "1 31182U 99025BJL 25356.80617193  .00000557  00000+0  31152-3 0  9997", "line2": "2 31182  98.6826 345.4013 0023530 108.6535  12.2806 14.14566370962235"}}, "geometry": {"type": "Point", "coordinates": [-17.273533238343347, 22.058985422853837]}}, {"type": "Feature", "properties": {"norad_id": 31183, "name": "FENGYUN 1C DEB", "group": "fengyun-1c-debris", "lat": -80.90732531802819, "lon": 66.19529554815927, "alt_km": 763.8854340017779, "timestamp": "2025-12-23T16:57:12.633551+00:00", "meta": {"OBJECT_NAME": "FENGYUN 1C DEB", "OBJECT_ID": "1999-025BJM", "EPOCH": "2025-12-22T05:00:46.876032", "MEAN_MOTION": 14.50515852, "ECCENTRICITY": 0.0047814, "INCLINATION": 99.0371, "RA_OF_ASC_NODE": 340.6356, "ARG_OF_PERICENTER": 79.5767, "MEAN_ANOMALY": 296.1391, "EPHEMERIS_TYPE": 0, "CLASSIFICATION_TYPE": "U", "NORAD_CAT_ID": 31183, "ELEMENT_SET_NO": 999, "REV_AT_EPOCH": 97620, "BSTAR": 0.0013102144, "MEAN_MOTION_DOT": 5.156e-05, "MEAN_MOTION_DDOT": 0}, "tle": {"line1": "1 31183U 99025BJM 25356.20887588  .00005156  00000+0  13102-2 0  9993", "line2": "2 31183  99.0371 340.6356 0047814  79.5767 296.1391 14.50515852976200"}}, "geometry": {"type": "Point", "coordinates": [66.19529554815927, -80.90732531802819]}}, {"type": "Feature", "properties": {"norad_id": 31185, "name": "FENGYUN 1C DEB", "group": "fengyun-1c-debris", "lat": 29.56823047099644, "lon": 178.9131512632932, "alt_km": 873.5060823145659, "timestamp": "2025-12-23T16:57:12.633580+00:00", "meta": {"OBJECT_NAME": "FENGYUN 1C DEB", "OBJECT_ID": "1999-025BJP", "EPOCH": "2025-12-03T06:44:56.905152", "MEAN_MOTION": 14.03019915, "ECCENTRICITY": 0.0041359, "INCLINATION": 98.8321, "RA_OF_ASC_NODE": 334.0356, "ARG_OF_PERICENTER": 132.5488, "MEAN_ANOMALY": 227.9182, "EPHEMERIS_TYPE": 0, "CLASSIFICATION_TYPE": "U", "NORAD_CAT_ID": 31185, "ELEMENT_SET_NO": 999, "REV_AT_EPOCH": 62204, "BSTAR": 0.0004459, "MEAN_MOTION_DOT": 6.55e-06, "MEAN_MOTION_DDOT": 0}, "tle": {"line1": "1 31185U 99025BJP 25337.28121418  .00000655  00000+0  44590-3 0  9990", "line2": "2 31185  98.8321 334.0356 0041359 132.5488 227.9182 14.03019915622046"}}, "geometry": {"type": "Point", "coordinates": [178.9131512632932, 29.56823047099644]}}, {"type": "Feature", "properties": {"norad_id": 31186, "name": "FENGYUN 1C DEB", "group": "fengyun-1c-debris", "lat": 2.2194750545269, "lon": -87.02064071692388, "alt_km": 835.5998258303116, "timestamp": "2025-12-23T16:57:12.633595+00:00", "meta": {"OBJECT_NAME": "FENGYUN 1C DEB", "OBJECT_ID": "1999-025BJQ", "EPOCH": "2025-12-21T13:06:21.566016", "MEAN_MOTION": 14.12920927, "ECCENTRICITY": 0.0026334, "INCLINATION": 99.1789, "RA_OF_ASC_NODE": 271.1249, "ARG_OF_PERICENTER": 39.1426, "MEAN_ANOMALY": 140.9615, "EPHEMERIS_TYPE": 0, "CLASSIFICATION_TYPE": "U", "NORAD_CAT_ID": 31186, "ELEMENT_SET_NO": 999, "REV_AT_EPOCH": 96229, "BSTAR": 0.00037163, "MEAN_MOTION_DOT": 6.48e-06, "MEAN_MOTION_DDOT": 0}, "tle": {"line1": "1 31186U 99025BJQ 25355.54608294  .00000648  00000+0  37163-3 0  9992", "line2": "2 31186  99.1789 271.1249 0026334  39.1426 140.9615 14.12920927962294"}}, "geometry": {"type": "Point", "coordinates": [-87.02064071692388, 2.2194750545269]}}, {"type": "Feature", "properties": {"norad_id": 31187, "name": "FENGYUN 1C DEB", "group": "fengyun-1c-debris", "lat": -63.18566836080741, "lon": -118.80564378748988, "alt_km": 737.9957716270237, "timestamp": "2025-12-23T16:57:12.633606+00:00", "meta": {"OBJECT_NAME": "FENGYUN 1C DEB", "OBJECT_ID": "1999-025BJR", "EPOCH": "2025-12-21T10:58:01.324992", "MEAN_MOTION": 14.59636852, "ECCENTRICITY": 0.02193421, "INCLINATION": 99.2407, "RA_OF_ASC_NODE": 219.8994, "ARG_OF_PERICENTER": 197.2347, "MEAN_ANOMALY": 162.132, "EPHEMERIS_TYPE": 0, "CLASSIFICATION_TYPE": "U", "NORAD_CAT_ID": 31187, "ELEMENT_SET_NO": 999, "REV_AT_EPOCH": 69227, "BSTAR": 0.0019708223, "MEAN_MOTION_DOT": 0.0001311, "MEAN_MOTION_DDOT": 0}, "tle": {"line1": "1 31187U 99025BJR 25355.45695978  .00013110  00000+0  19708-2 0  9990", "line2": "2 31187  99.2407 219.8994 0219342 197.2347 162.1320 14.59636852692279"}}, "geometry": {"type": "Point", "coordinates": [-118.80564378748988, -63.18566836080741]}}, {"type": "Feature", "properties": {"norad_id": 31188, "name": "FENGYUN 1C DEB", "group": "fengyun-1c-debris", "lat": 60.22143643444344, "lon": -98.95260101797585, "alt_km": 813.1849525351199, "timestamp": "2025-12-23T16:57:12.633616+00:00", "meta": {"OBJECT_NAME": "FENGYUN 1C DEB", "OBJECT_ID": "1999-025BJS", "EPOCH": "2025-12-22T20:28:29.943840", "MEAN_MOTION": 14.23887484, "ECCENTRICITY": 0.0060762, "INCLINATION": 98.7475, "RA_OF_ASC_NODE": 64.5893, "ARG_OF_PERICENTER": 220.3553, "MEAN_ANOMALY": 207.4513, "EPHEMERIS_TYPE": 0, "CLASSIFICATION_TYPE": "U", "NORAD_CAT_ID": 31188, "ELEMENT_SET_NO": 999, "REV_AT_EPOCH": 96480, "BSTAR": 0.0015869, "MEAN_MOTION_DOT": 3.662e-05, "MEAN_MOTION_DDOT": 0}, "tle": {"line1": "1 31188U 99025BJS 25356.85312435  .00003662  00000+0  15869-2 0  9995", "line2": "2 31188  98.7475  64.5893 0060762 220.3553 207.4513 14.23887484964807"}}, "geometry": {"type": "Point", "coordinates": [-98.95260101797585, 60.22143643444344]}}, {"type": "Feature", "properties": {"norad_id": 31190, "name": "FENGYUN 1C DEB", "group": "fengyun-1c-debris", "lat": -19.05404905077553, "lon": -172.97201157522937, "alt_km": 843.4225587677975, "timestamp": "2025-12-23T16:57:12.633626+00:00", "meta": {"OBJECT_NAME": "FENGYUN 1C DEB", "OBJECT_ID": "1999-025BJU", "EPOCH": "2025-12-15T23:14:05.075520", "MEAN_MOTION": 14.03609027, "ECCENTRICITY": 0.00676763, "INCLINATION": 98.819, "RA_OF_ASC_NODE": 2.5971, "ARG_OF_PERICENTER": 250.3103, "MEAN_ANOMALY": 109.0754, "EPHEMERIS_TYPE": 0, "CLASSIFICATION_TYPE": "U", "NORAD_CAT_ID": 31190, "ELEMENT_SET_NO": 999, "REV_AT_EPOCH": 95592, "BSTAR": 0.00091857664, "MEAN_MOTION_DOT": 1.428e-05, "MEAN_MOTION_DDOT": 0}, "tle": {"line1": "1 31190U 99025BJU 25349.96811430  .00001428  00000+0  91858-3 0  9992", "line2": "2 31190  98.8190   2.5971 0067676 250.3103 109.0754 14.03609027955929"}}, "geometry": {"type": "Point", "coordinates": [-172.97201157522937, -19.05404905077553]}}, {"type": "Feature", "properties": {"norad_id": 31191, "name": "FENGYUN 1C DEB", "group": "fengyun-1c-debris", "lat": 78.94359844008785, "lon": 131.1894215082379, "alt_km": 720.0371168116335, "timestamp": "2025-12-23T16:57:12.633636+00:00", "meta": {"OBJECT_NAME": "FENGYUN 1C DEB", "OBJECT_ID": "1999-025BJV", "EPOCH": "2025-12-21T04:30:07.407072", "MEAN_MOTION": 14.40807642, "ECCENTRICITY": 0.00926723, "INCLINATION": 98.7829, "RA_OF_ASC_NODE": 256.3053, "ARG_OF_PERICENTER": 169.2422, "MEAN_ANOMALY": 191.0777, "EPHEMERIS_TYPE": 0, "CLASSIFICATION_TYPE": "U", "NORAD_CAT_ID": 31191, "ELEMENT_SET_NO": 999, "REV_AT_EPOCH": 98134, "BSTAR": 0.00021133033, "MEAN_MOTION_DOT": 6.63e-06, "MEAN_MOTION_DDOT": 0}, "tle": {"line1": "1 31191U 99025BJV 25355.18758573  .00000663  00000+0  21133-3 0  9991", "line2": "2 31191  98.7829 256.3053 0092672 169.2422 191.0777 14.40807642981349"}}, "geometry": {"type": "Point", "coordinates": [131.1894215082379, 78.94359844008785]}}, {"type": "Feature", "properties": {"norad_id": 31192, "name": "FENGYUN 1C DEB", "group": "fengyun-1c-debris", "lat": -63.39994074185302, "lon": -1.4511026731223307, "alt_km": 962.9673295741386, "timestamp": "2025-12-23T16:57:12.633646+00:00", "meta": {"OBJECT_NAME": "FENGYUN 1C DEB", "OBJECT_ID": "1999-025BJW", "EPOCH": "2025-12-22T17:36:07.954560", "MEAN_MOTION": 14.20977937, "ECCENTRICITY": 0.02596997, "INCLINATION": 98.554, "RA_OF_ASC_NODE": 340.1143, "ARG_OF_PERICENTER": 74.844, "MEAN_ANOMALY": 288.1303, "EPHEMERIS_TYPE": 0, "CLASSIFICATION_TYPE": "U", "NORAD_CAT_ID": 31192, "ELEMENT_SET_NO": 999, "REV_AT_EPOCH": 96885, "BSTAR": 0.00031139274, "MEAN_MOTION_DOT": 9.03e-06, "MEAN_MOTION_DDOT": 0}, "tle": {"line1": "1 31192U 99025BJW 25356.73342540  .00000903  00000+0  31139-3 0  9991", "line2": "2 31192  98.5540 340.1143 0259699  74.8440 288.1303 14.20977937968852"}}, "geometry": {"type": "Point", "coordinates": [-1.4511026731223307, -63.39994074185302]}}, {"type": "Feature", "properties": {"norad_id": 31194, "name": "FENGYUN 1C DEB", "group": "fengyun-1c-debris", "lat": 57.83668273117765, "lon": 81.7598033354352, "alt_km": 787.4095630138954, "timestamp": "2025-12-23T16:57:12.633662+00:00", "meta": {"OBJECT_NAME": "FENGYUN 1C DEB", "OBJECT_ID": "1999-025BJY", "EPOCH": "2025-12-22T03:36:55.463616", "MEAN_MOTION": 14.36698448, "ECCENTRICITY": 0.00569188, "INCLINATION": 98.9643, "RA_OF_ASC_NODE": 245.6033, "ARG_OF_PERICENTER": 251.2767, "MEAN_ANOMALY": 108.2235, "EPHEMERIS_TYPE": 0, "CLASSIFICATION_TYPE": "U", "NORAD_CAT_ID": 31194, "ELEMENT_SET_NO": 999, "REV_AT_EPOCH": 97262, "BSTAR": 0.00088208062, "MEAN_MOTION_DOT": 2.6e-05, "MEAN_MOTION_DDOT": 0}, "tle": {"line1": "1 31194U 99025BJY 25356.15064194  .00002600  00000+0  88208-3 0  9990", "line2": "2 31194  98.9643 245.6033 0056918 251.2767 108.2235 14.36698448972621"}}, "geometry": {"type": "Point", "coordinates": [81.7598033354352, 57.83668273117765]}}]}